STARLINK-2326           
1 47870C 21021L   26086.56298611 -.00005343  00000+0 -18011-3 0   869
2 47870  53.1588 197.9606 0001216  80.6233 184.9135 15.30192154    11
STARLINK-2329           
1 47873C 21021P   26086.56923611  .00012304  00000+0  41465-3 0   869
2 47873  53.1592 172.4109 0001386  84.0851   1.3485 15.30188649    11
STARLINK-2330           
1 47874C 21021Q   26086.57479167  .00060370  00000+0  20508-2 0   863
2 47874  53.1462 133.6289 0001486  55.4705 170.8140 15.29905204    19
STARLINK-2336           
1 47879C 21021V   26086.67965278  .00098618  00000+0  21979-2 0   861
2 47879  53.1577 195.6908 0002634   1.0807 184.9364 15.42959544    18
STARLINK-2342           
1 47883C 21021Z   26086.54701389  .00060516  00000+0  11785-2 0   863
2 47883  53.1589 183.0459 0003068  16.9537  77.2263 15.46929164    16
STARLINK-2343           
1 47884C 21021AA  26086.59006944 -.00005852  00000+0 -20240-3 0   865
2 47884  53.1565 197.8266 0001401  89.9896 325.6407 15.29356684    19
STARLINK-2346           
1 47887C 21021AD  26086.57895833 -.00003618  00000+0 -12185-3 0   866
2 47887  53.1576 197.9106 0000939  66.5279 170.9445 15.30217474    17
STARLINK-2354           
1 47894C 21021AL  26086.67687500  .00051001  00000+0  17035-2 0   860
2 47894  53.1515 184.5663 0000823  16.4541 196.3772 15.30456751    14
STARLINK-2355           
1 47895C 21021AM  26086.60951389  .00016179  00000+0  54523-3 0   864
2 47895  53.1593 184.9149 0001345  86.2170  44.0565 15.30186341    11
STARLINK-2356           
1 47896C 21021AN  26086.60604167  .00004609  00000+0  15545-3 0   860
2 47896  53.1593 197.7688 0001215  81.1837 177.7961 15.30164535    17
STARLINK-2358           
1 47898C 21021AQ  26086.66368056  .00041760  00000+0  14072-2 0   864
2 47898  53.1597 184.6344 0001264  90.5743  36.3511 15.30177334    13
STARLINK-2361           
1 47901C 21021AT  26086.67409722  .00058560  00000+0  19145-2 0   868
2 47901  53.1581 171.8350 0002041  39.2049 340.0251 15.31141315    16
STARLINK-2363           
1 47903C 21021AV  26086.63034722  .00127380  00000+0  11207-2 0   868
2 47903  53.1585 164.2734 0004379  30.0003 327.0525 15.68036276    17
STARLINK-2364           
1 47904C 21021AW  26086.70534722  .00052195  00000+0  17590-2 0   864
2 47904  53.1581 171.6101 0001390  66.5522 101.5156 15.30169011    12
STARLINK-2367           
1 47907C 21021AZ  26086.66506944  .00028095  00000+0  97174-3 0   866
2 47907  53.1566 197.3690 0001247  94.2001 355.5362 15.29338925    17
STARLINK-2370           
1 47910C 21021BC  26086.57340278 -.00001812  00000+0 -61063-4 0   865
2 47910  53.1578 185.0523 0001196  90.1433 328.8513 15.30202623    18
STARLINK-2371           
1 47911C 21021BD  26086.68729167  .00036930  00000+0  12445-2 0   861
2 47911  53.1579 197.3956 0001173  76.3976  20.7690 15.30177643    16
STARLINK-2378           
1 47916C 21021BJ  26086.66576389  .00052080  00000+0  17549-2 0   864
2 47916  53.1581 171.8620 0001292  91.0335 242.0165 15.30171857    11
STARLINK-2405           
1 47919C 21021BM  26086.65604167  .00066494  00000+0  22383-2 0   868
2 47919  53.1603 197.5376 0001372  78.3638 351.6262 15.30197842    12
STARLINK-1647           
1 47978C 21024B   26086.62409722 -.00015825  00000+0 -53326-3 0   869
2 47978  53.1587 249.0999 0001328  77.8784 186.8930 15.30204673    10
STARLINK-2303           
1 47981C 21024E   26086.66020833 -.00016374  00000+0 -55186-3 0   865
2 47981  53.1596 248.9800 0001363  76.4812  62.1309 15.30199850    15
STARLINK-2273           
1 47993C 21024S   26086.57965278 -.00005331  00000+0 -13442-3 0   869
2 47993  53.1539 212.8488 0000743  57.3039  53.8292 15.39301209    17
STARLINK-2266           
1 47997C 21024W   26086.68937500  .00015079  00000+0  50817-3 0   867
2 47997  53.1588 223.1422 0001448  77.4585 164.2699 15.30186891    17
STARLINK-2270           
1 48000C 21024Z   26086.65187500  .00063927  00000+0  19269-2 0   867
2 48000  53.1298 158.8269 0000798  74.2973 151.7071 15.33727515    19
STARLINK-2153           
1 48009C 21024AJ  26086.66159722  .00019606  00000+0  66123-3 0   869
2 48009  53.1588 225.9224 0001378  89.6236  65.2505 15.30159908    17
STARLINK-2226           
1 48010C 21024AK  26086.62270833 -.00021602  00000+0 -72787-3 0   868
2 48010  53.1571 249.1254 0001286  95.1426 272.2857 15.30210280    14
STARLINK-2285           
1 48019C 21024AU  26086.57479167 -.00011722  00000+0 -39507-3 0   867
2 48019  53.1578 223.7861 0001020  78.4037 170.3818 15.30197741    11
STARLINK-2298           
1 48022C 21024AX  26086.65881944  .00816680  00000+0  20136-1 0   860
2 48022  53.1263 248.6983 0001300  95.6596 260.9841 15.39570888    17
STARLINK-2292           
1 48023C 21024AY  26086.58937500 -.00011087  00000+0 -30873-3 0   864
2 48023  53.1207 249.1329 0001295  82.2087  99.5829 15.36248633    15
STARLINK-2299           
1 48029C 21024BE  26086.67756944 -.00012557  00000+0 -40584-3 0   864
2 48029  53.1185 248.6414 0001009 128.0349 348.9222 15.31547014    16
STARLINK-2404           
1 48093C 21027B   26086.56715278 -.00015659  00000+0 -52820-3 0   863
2 48093  53.1607  71.9139 0001511  99.6069  13.5964 15.30173424    14
STARLINK-2412           
1 48094C 21027C   26086.58243056 -.00014596  00000+0 -49229-3 0   864
2 48094  53.1574  82.1673 0001186  74.0099 100.3084 15.30174717    17
STARLINK-2414           
1 48095C 21027D   26086.68312500 -.00020996  00000+0 -70811-3 0   869
2 48095  53.1590  81.7328 0001358  86.6107 224.6201 15.30180911    12
STARLINK-2417           
1 48096C 21027E   26086.60256944 -.00022729  00000+0 -76662-3 0   867
2 48096  53.1593  82.3928 0001140 102.2013 107.3695 15.30179520    17
STARLINK-2418           
1 48097C 21027F   26086.54909722 -.00017438  00000+0 -58816-3 0   862
2 48097  53.1594  69.9844 0001188  76.6266 224.3442 15.30176777    14
STARLINK-2421           
1 48098C 21027G   26086.59631944 -.00024140  00000+0 -81412-3 0   862
2 48098  53.1579  71.7712 0001416  97.7160 309.7767 15.30183120    12
STARLINK-2428           
1 48099C 21027H   26086.58798611 -.00017465  00000+0 -58895-3 0   868
2 48099  53.1601  84.6576 0001098  82.4773 217.8706 15.30182884    15
STARLINK-2430           
1 48100C 21027J   26086.68173611 -.00005401  00000+0 -18219-3 0   862
2 48100  53.1589  68.9121 0001321  87.3850 155.4172 15.30165491    12
STARLINK-2436           
1 48101C 21027K   26086.69284722 -.00003308  00000+0 -11151-3 0   862
2 48101  53.1574  71.3229 0001243 113.5313 117.5015 15.30186829    16
STARLINK-2439           
1 48104C 21027N   26086.67826389 -.00001055  00000+0 -35579-4 0   862
2 48104  53.1600  69.2087 0001320  93.4307 321.5964 15.30170339    11
STARLINK-2440           
1 48105C 21027P   26086.66993056  .00050686  00000+0  17087-2 0   862
2 48105  53.1585  17.4883 0001256 114.7312  52.1785 15.30158292    16
STARLINK-2442           
1 48106C 21027Q   26086.53520833 -.00013089  00000+0 -45295-3 0   869
2 48106  53.1554  69.3136 0001190  79.3966 216.2581 15.29343183    18
STARLINK-2443           
1 48107C 21027R   26086.63659722 -.00022689  00000+0 -76520-3 0   862
2 48107  53.1610  69.2145 0001400 103.3797  99.5515 15.30181689    17
STARLINK-2448           
1 48111C 21027V   26086.67340278  .00030382  00000+0  94555-3 0   869
2 48111  53.1601  71.1994 0002786  95.4712 172.7588 15.32727325    11
STARLINK-2449           
1 48112C 21027W   26086.57062500 -.00006038  00000+0 -20370-3 0   865
2 48112  53.1587  84.7596 0001379  94.4036  92.9179 15.30166148    15
STARLINK-2450           
1 48113C 21027X   26086.66368056 -.00025601  00000+0 -86365-3 0   864
2 48113  53.1578  81.8009 0001333  75.6452 238.7810 15.30173591    18
STARLINK-2452           
1 48115C 21027Z   26086.54840278 -.00014504  00000+0 -48925-3 0   864
2 48115  53.1603  71.9870 0001301  92.0258 202.3724 15.30170667    19
STARLINK-2454           
1 48116C 21027AA  26086.59215278 -.00019995  00000+0 -67426-3 0   862
2 48116  53.1586  82.1105 0001151  98.8073 216.1824 15.30185608    12
STARLINK-2455           
1 48117C 21027AB  26086.69701389  .00005065  00000+0  17531-3 0   860
2 48117  53.1553  68.8107 0001190  84.0036 239.4157 15.29327240    14
STARLINK-2459           
1 48119C 21027AD  26086.58381944 -.00023280  00000+0 -78539-3 0   867
2 48119  53.1581  69.3310 0000967 103.7795 278.7209 15.30171902    19
STARLINK-2460           
1 48120C 21027AE  26086.69423611 -.00018148  00000+0 -61049-3 0   864
2 48120  53.1600  84.1781 0002222  77.5774 199.5743 15.30260504    11
STARLINK-2462           
1 48121C 21027AF  26086.69840278  .00001558  00000+0  52567-4 0   868
2 48121  53.1585  71.2825 0001349  80.0867 158.4787 15.30163497    16
STARLINK-2464           
1 48123C 21027AH  26086.62479167 -.00028450  00000+0 -95952-3 0   864
2 48123  53.1588  69.2233 0001239  83.8925 199.1706 15.30183432    19
STARLINK-2465           
1 48124C 21027AJ  26086.67062500 -.00009083  00000+0 -30629-3 0   860
2 48124  53.1594  71.4337 0001329 103.7232 289.4223 15.30178821    13
STARLINK-2466           
1 48125C 21027AK  26086.57340278 -.00008299  00000+0 -27990-3 0   866
2 48125  53.1581  82.2231 0001492  80.4509   9.2830 15.30170596    15
STARLINK-2467           
1 48126C 21027AL  26086.67826389 -.00001124  00000+0 -38915-4 0   860
2 48126  53.1554  68.8930 0001421  97.5169 345.8085 15.29333102    18
STARLINK-2468           
1 48127C 21027AM  26086.57756944 -.00013558  00000+0 -45730-3 0   865
2 48127  53.1591  82.3208 0001110 100.1423 116.9836 15.30174518    15
STARLINK-2469           
1 48128C 21027AN  26086.71229167 -.00040624  00000+0 -18604-2 0   867
2 48128  53.1031  18.5276 0001993 131.4601  90.5839 15.19991500    10
STARLINK-2471           
1 48129C 21027AP  26086.60326389 -.00024396  00000+0 -82297-3 0   868
2 48129  53.1579  82.3648 0001307  75.7691 230.5693 15.30174702    12
